KUIPER-00167            
1 65780U 25217U   26002.00003472 -.00005015  00000+0 -65499-3 0  9997
2 65780  51.8973 340.4508 0001185 119.3489 288.6964 14.78272925  3053
KUIPER-00168            
1 65781U 25217V   26002.00003472 -.00921023  00000+0 -47245-1 0  9991
2 65781  51.8841 326.7153 0000877  97.8932  68.8696 15.18749089  2460
KUIPER-00169            
1 65782U 25217W   26002.00003472 -.00088033  00000+0 -66909-2 0  9996
2 65782  51.9099 329.3130 0004606  94.0131 251.7850 15.02073951  5194
KUIPER-00170            
1 65783U 25217X   26002.00003472 -.02140513  00000+0 -23286+0 0  9999
2 65783  51.8958 333.3142 0008218  83.9987  88.0419 14.91572933  5165
KUIPER-00171            
1 65784U 25217Y   26002.00003472  .00038067  00000+0  26472-3 0  9990
2 65784  51.8540 313.0327 0011115  95.8744 167.2142 15.73931744  4494
KUIPER-00172            
1 65785U 25217Z   26001.34835293  .00028488  00000+0  13119-2 0  9990
2 65785  51.8789 330.7954 0005493  95.0896 265.0711 15.20070542 15048
KUIPER-00173            
1 65786U 25217AA  26002.00003472 -.01094636  00000+0 -85759-1 0  9990
2 65786  51.8895 329.4596 0001112 155.6893 359.9009 15.03602465  3279
KUIPER-00174            
1 65787U 25217AB  26002.00003472 -.00931602  00000+0 -49336-1 0  9994
2 65787  51.8833 326.9021 0001358 101.2931 267.3798 15.17677435  5878
